LEMUR-2-AMANDA-SVANTE   
1 48269U 21034B   26068.77637527  .00030872  00000+0  11134-2 0  9996
2 48269  97.5829 144.8625 0002703 205.4721 154.6385 15.28469003265849
STARLINK-32379          
1 61851U 24202G   26068.45941736 -.00000713  00000+0 -16398-4 0  9995
2 61851  42.9987 227.9359 0000686 260.6359  99.4415 15.27570727 75423
